[{"OBJECT_NAME":"QB50P1","OBJECT_ID":"2014-033R","EPOCH":"2026-03-09T23:22:28.219872","MEAN_MOTION":15.16526525,"ECCENTRICITY":0.00083666,"INCLINATION":98.1009,"RA_OF_ASC_NODE":73.2758,"ARG_OF_PERICENTER":193.7221,"MEAN_ANOMALY":166.3784,"EPHEMERIS_TYPE":0,"CLASSIFICATION_TYPE":"U","NORAD_CAT_ID":40025,"ELEMENT_SET_NO":999,"REV_AT_EPOCH":63798,"BSTAR":0.00058166231,"MEAN_MOTION_DOT":0.00011283,"MEAN_MOTION_DDOT":0},{"OBJECT_NAME":"STARLINK-6126","OBJECT_ID":"2023-046AJ","EPOCH":"2026-03-09T22:00:01.999584","MEAN_MOTION":15.125351,"ECCENTRICITY":0.00023023,"INCLINATION":42.9998,"RA_OF_ASC_NODE":144.9048,"ARG_OF_PERICENTER":271.6853,"MEAN_ANOMALY":109.3366,"EPHEMERIS_TYPE":0,"CLASSIFICATION_TYPE":"U","NORAD_CAT_ID":56124,"ELEMENT_SET_NO":999,"REV_AT_EPOCH":577,"BSTAR":0.0675572,"MEAN_MOTION_DOT":0.01299298,"MEAN_MOTION_DDOT":0}]
